{
  "type": "FeatureCollection",
  "features": [
    {
      "type": "Feature",
      "properties": {
        "norad_id": 37238,
        "name": "INTELSAT 17 (IS-17)",
        "group": "intelsat",
        "lat": -0.02902969523326485,
        "lon": -116.96878277372649,
        "alt_km": 35775.36937802361,
        "timestamp": "2025-12-03T06:58:42.909023+00:00",
        "meta_object_name": "INTELSAT 17 (IS-17)",
        "meta_object_id": "2010-065B",
        "meta_epoch": "2025-12-02T20:14:45.063168",
        "meta_mean_motion": 1.00272357,
        "meta_eccentricity": 0.0002695,
        "meta_inclination": 0.0174,
        "meta_ra_of_asc_node": 279.8981,
        "meta_arg_of_pericenter": 345.8571,
        "meta_mean_anomaly": 175.8812,
        "meta_ephemeris_type": 0,
        "meta_classification_type": "U",
        "meta_norad_cat_id": 37238,
        "meta_element_set_no": 999,
        "meta_rev_at_epoch": 5127,
        "meta_bstar": 0,
        "meta_mean_motion_dot": 1.8e-07,
        "meta_mean_motion_ddot": 0,
        "tle_line1": "1 37238U 10065B   25336.84357712  .00000018  00000+0  00000+0 0  9998",
        "tle_line2": "2 37238   0.0174 279.8981 0002695 345.8571 175.8812  1.00272357 51270"
      },
      "geometry": {
        "type": "Point",
        "coordinates": [
          -116.96878277372649,
          -0.02902969523326485
        ]
      }
    },
    {
      "type": "Feature",
      "properties": {
        "norad_id": 37392,
        "name": "INTELSAT 28 (IS-28)",
        "group": "intelsat",
        "lat": 1.1223171663326483,
        "lon": 145.2830716013466,
        "alt_km": 35792.36746953748,
        "timestamp": "2025-12-03T06:58:42.909035+00:00",
        "meta_object_name": "INTELSAT 28 (IS-28)",
        "meta_object_id": "2011-016A",
        "meta_epoch": "2025-12-02T17:03:32.593824",
        "meta_mean_motion": 1.00271495,
        "meta_eccentricity": 0.000404,
        "meta_inclination": 1.2964,
        "meta_ra_of_asc_node": 85.1745,
        "meta_arg_of_pericenter": 171.8194,
        "meta_mean_anomaly": 38.9987,
        "meta_ephemeris_type": 0,
        "meta_classification_type": "U",
        "meta_norad_cat_id": 37392,
        "meta_element_set_no": 999,
        "meta_rev_at_epoch": 5131,
        "meta_bstar": 0,
        "meta_mean_motion_dot": -2.05e-06,
        "meta_mean_motion_ddot": 0,
        "tle_line1": "1 37392U 11016A   25336.71079391 -.00000205  00000+0  00000+0 0  9995",
        "tle_line2": "2 37392   1.2964  85.1745 0004040 171.8194  38.9987  1.00271495 51310"
      },
      "geometry": {
        "type": "Point",
        "coordinates": [
          145.2830716013466,
          1.1223171663326483
        ]
      }
    },
    {
      "type": "Feature",
      "properties": {
        "norad_id": 37834,
        "name": "INTELSAT 18 (IS-18)",
        "group": "intelsat",
        "lat": 0.012107324862053867,
        "lon": -2.9418772673868654,
        "alt_km": 35788.37710898883,
        "timestamp": "2025-12-03T06:58:42.909047+00:00",
        "meta_object_name": "INTELSAT 18 (IS-18)",
        "meta_object_id": "2011-056A",
        "meta_epoch": "2025-12-02T14:38:27.602880",
        "meta_mean_motion": 1.00271068,
        "meta_eccentricity": 0.0002135,
        "meta_inclination": 0.0103,
        "meta_ra_of_asc_node": 349.7892,
        "meta_arg_of_pericenter": 263.574,
        "meta_mean_anomaly": 217.9638,
        "meta_ephemeris_type": 0,
        "meta_classification_type": "U",
        "meta_norad_cat_id": 37834,
        "meta_element_set_no": 999,
        "meta_rev_at_epoch": 5184,
        "meta_bstar": 0,
        "meta_mean_motion_dot": 7.3e-07,
        "meta_mean_motion_ddot": 0,
        "tle_line1": "1 37834U 11056A   25336.61004170  .00000073  00000+0  00000+0 0  9994",
        "tle_line2": "2 37834   0.0103 349.7892 0002135 263.5740 217.9638  1.00271068 51840"
      },
      "geometry": {
        "type": "Point",
        "coordinates": [
          -2.9418772673868654,
          0.012107324862053867
        ]
      }
    },
    {
      "type": "Feature",
      "properties": {
        "norad_id": 38098,
        "name": "INTELSAT 22 (IS-22)",
        "group": "intelsat",
        "lat": -0.022075910531087366,
        "lon": -110.86135889966307,
        "alt_km": 35779.11161924071,
        "timestamp": "2025-12-03T06:58:42.909059+00:00",
        "meta_object_name": "INTELSAT 22 (IS-22)",
        "meta_object_id": "2012-011A",
        "meta_epoch": "2025-12-02T19:51:45.822816",
        "meta_mean_motion": 1.00271133,
        "meta_eccentricity": 0.0001707,
        "meta_inclination": 0.0028,
        "meta_ra_of_asc_node": 356.3094,
        "meta_arg_of_pericenter": 261.5152,
        "meta_mean_anomaly": 184.1497,
        "meta_ephemeris_type": 0,
        "meta_classification_type": "U",
        "meta_norad_cat_id": 38098,
        "meta_element_set_no": 999,
        "meta_rev_at_epoch": 521,
        "meta_bstar": 0,
        "meta_mean_motion_dot": -3.9e-07,
        "meta_mean_motion_ddot": 0,
        "tle_line1": "1 38098U 12011A   25336.82761369 -.00000039  00000+0  00000+0 0  9995",
        "tle_line2": "2 38098   0.0028 356.3094 0001707 261.5152 184.1497  1.00271133  5217"
      },
      "geometry": {
        "type": "Point",
        "coordinates": [
          -110.86135889966307,
          -0.022075910531087366
        ]
      }
    },
    {
      "type": "Feature",
      "properties": {
        "norad_id": 38356,
        "name": "INTELSAT 19 (IS-19)",
        "group": "intelsat",
        "lat": 0.015490432127888849,
        "lon": -16.90536265137605,
        "alt_km": 35785.04411518278,
        "timestamp": "2025-12-03T06:58:42.909071+00:00",
        "meta_object_name": "INTELSAT 19 (IS-19)",
        "meta_object_id": "2012-030A",
        "meta_epoch": "2025-12-02T16:17:59.421408",
        "meta_mean_motion": 1.0027165,
        "meta_eccentricity": 0.0003447,
        "meta_inclination": 0.01,
        "meta_ra_of_asc_node": 317.5446,
        "meta_arg_of_pericenter": 299.7965,
        "meta_mean_anomaly": 224.9562,
        "meta_ephemeris_type": 0,
        "meta_classification_type": "U",
        "meta_norad_cat_id": 38356,
        "meta_element_set_no": 999,
        "meta_rev_at_epoch": 4848,
        "meta_bstar": 0,
        "meta_mean_motion_dot": -3.6e-07,
        "meta_mean_motion_ddot": 0,
        "tle_line1": "1 38356U 12030A   25336.67915997 -.00000036  00000+0  00000+0 0  9991",
        "tle_line2": "2 38356   0.0100 317.5446 0003447 299.7965 224.9562  1.00271650 48489"
      },
      "geometry": {
        "type": "Point",
        "coordinates": [
          -16.90536265137605,
          0.015490432127888849
        ]
      }
    },
    {
      "type": "Feature",
      "properties": {
        "norad_id": 38740,
        "name": "INTELSAT 20 (IS-20)",
        "group": "intelsat",
        "lat": -0.033869558152636925,
        "lon": -114.4670775649301,
        "alt_km": 35779.543348058265,
        "timestamp": "2025-12-03T06:58:42.909083+00:00",
        "meta_object_name": "INTELSAT 20 (IS-20)",
        "meta_object_id": "2012-043A",
        "meta_epoch": "2025-12-02T00:24:39.918816",
        "meta_mean_motion": 1.00268447,
        "meta_eccentricity": 0.00030847,
        "meta_inclination": 0.0115,
        "meta_ra_of_asc_node": 324.2147,
        "meta_arg_of_pericenter": 225.9347,
        "meta_mean_anomaly": 315.6275,
        "meta_ephemeris_type": 0,
        "meta_classification_type": "U",
        "meta_norad_cat_id": 38740,
        "meta_element_set_no": 999,
        "meta_rev_at_epoch": 4877,
        "meta_bstar": 0,
        "meta_mean_motion_dot": 0,
        "meta_mean_motion_ddot": 0,
        "tle_line1": "1 38740U 12043A   25336.01712869  .00000000  00000+0  00000+0 0  9993",
        "tle_line2": "2 38740   0.0115 324.2147 0003084 225.9347 315.6275  1.00268447 48778"
      },
      "geometry": {
        "type": "Point",
        "coordinates": [
          -114.4670775649301,
          -0.033869558152636925
        ]
      }
    },
    {
      "type": "Feature",
      "properties": {
        "norad_id": 38749,
        "name": "INTELSAT 21 (IS-21)",
        "group": "intelsat",
        "lat": 0.013612348408933408,
        "lon": 119.01202660050524,
        "alt_km": 35792.59394302994,
        "timestamp": "2025-12-03T06:58:42.909095+00:00",
        "meta_object_name": "INTELSAT 21 (IS-21)",
        "meta_object_id": "2012-045A",
        "meta_epoch": "2025-12-02T19:49:38.654112",
        "meta_mean_motion": 1.00268831,
        "meta_eccentricity": 0.0002406,
        "meta_inclination": 0.0159,
        "meta_ra_of_asc_node": 320.5872,
        "meta_arg_of_pericenter": 281.885,
        "meta_mean_anomaly": 68.8684,
        "meta_ephemeris_type": 0,
        "meta_classification_type": "U",
        "meta_norad_cat_id": 38749,
        "meta_element_set_no": 999,
        "meta_rev_at_epoch": 4855,
        "meta_bstar": 0,
        "meta_mean_motion_dot": -2.65e-06,
        "meta_mean_motion_ddot": 0,
        "tle_line1": "1 38749U 12045A   25336.82614183 -.00000265  00000+0  00000+0 0  9997",
        "tle_line2": "2 38749   0.0159 320.5872 0002406 281.8850  68.8684  1.00268831 48550"
      },
      "geometry": {
        "type": "Point",
        "coordinates": [
          119.01202660050524,
          0.013612348408933408
        ]
      }
    }
  ]
}